COMMENT,ORIGINATOR,NORAD_CAT_ID,OBJECT_NAME,OBJECT_TYPE,CLASSIFICATION_TYPE,INTLDES,EPOCH,EPOCH_MICROSECONDS,MEAN_MOTION,ECCENTRICITY,INCLINATION,RA_OF_ASC_NODE,ARG_OF_PERICENTER,MEAN_ANOMALY,EPHEMERIS_TYPE,ELEMENT_SET_NO,REV_AT_EPOCH,BSTAR,MEAN_MOTION_DOT,MEAN_MOTION_DDOT,FILE,TLE_LINE0,TLE_LINE1,TLE_LINE2,OBJECT_ID,OBJECT_NUMBER,SEMIMAJOR_AXIS,PERIOD,APOGEE,PERIGEE,DECAYED
"GENERATED VIA SPACETRACK.ORG API","18 SPCS","55096","SPACEBEE-161","PAYLOAD","U","23001CR","2023-10-01 17:06:03","152736","15.24194191","0.0013009","97.4641","334.0908","354.9667","5.1437","0","999","4130","0.0012388","0.00030271","0","4022057","0 SPACEBEE-161","1 55096U 23001CR  23274.71253649  .00030271  00000-0  12388-2 0  9993","2 55096  97.4641 334.0908 0013009 354.9667   5.1437 15.24194191 41303","2023-001CR","55096","6871.343","94.476","502.147","484.269","0"
"GENERATED VIA SPACETRACK.ORG API","18 SPCS","55096","SPACEBEE-161","PAYLOAD","U","23001CR","2023-10-01 17:06:03","152736","15.24194191","0.0013009","97.4641","334.0908","354.9667","5.1437","0","999","4130","0.0012388","0.00030271","0","4022139","0 SPACEBEE-161","1 55096U 23001CR  23274.71253649  .00030271  00000-0  12388-2 0  9993","2 55096  97.4641 334.0908 0013009 354.9667   5.1437 15.24194191 41303","2023-001CR","55096","6871.343","94.476","502.147","484.269","0"
"GENERATED VIA SPACETRACK.ORG API","18 SPCS","55096","SPACEBEE-161","PAYLOAD","U","23001CR","2023-10-02 16:44:04","259328","15.24256125","0.0012871","97.4639","335.0713","351.5267","8.575","0","999","4145","0.0012145","0.00029727","0","4023120","0 SPACEBEE-161","1 55096U 23001CR  23275.69727152  .00029727  00000-0  12145-2 0  9991","2 55096  97.4639 335.0713 0012871 351.5267   8.5750 15.24256125 41457","2023-001CR","55096","6871.157","94.472","501.866","484.178","0"
"GENERATED VIA SPACETRACK.ORG API","18 SPCS","55096","SPACEBEE-161","PAYLOAD","U","23001CR","2023-10-03 03:45:47","585664","15.24285021","0.0012816","97.4635","335.5288","349.8867","10.211","0","999","4152","0.0012258","0.00030031","0","4023331","0 SPACEBEE-161","1 55096U 23001CR  23276.15680076  .00030031  00000-0  12258-2 0  9991","2 55096  97.4635 335.5288 0012816 349.8867  10.2110 15.24285021 41525","2023-001CR","55096","6871.070","94.471","501.741","484.129","0"
"GENERATED VIA SPACETRACK.ORG API","18 SPCS","55096","SPACEBEE-161","PAYLOAD","U","23001CR","2023-10-03 10:03:54","883872","15.24299517","0.0012784","97.4633","335.7902","348.9464","11.149","0","999","4156","0.0011636","0.0002851","0","4023690","0 SPACEBEE-161","1 55096U 23001CR  23276.41938523  .00028510  00000-0  11636-2 0  9991","2 55096  97.4633 335.7902 0012784 348.9464  11.1490 15.24299517 41565","2023-001CR","55096","6871.027","94.470","501.676","484.108","0"
"GENERATED VIA SPACETRACK.ORG API","18 SPCS","55096","SPACEBEE-161","PAYLOAD","U","23001CR","2023-10-03 16:22:01","947072","15.24315858","0.0012767","97.4633","336.0516","347.8912","12.2016","0","999","4160","0.001142","0.00027991","0","4023936","0 SPACEBEE-161","1 55096U 23001CR  23276.68196698  .00027991  00000-0  11420-2 0  9992","2 55096  97.4633 336.0516 0012767 347.8912  12.2016 15.24315858 41605","2023-001CR","55096","6870.978","94.469","501.615","484.070","0"
"GENERATED VIA SPACETRACK.ORG API","18 SPCS","55096","SPACEBEE-161","PAYLOAD","U","23001CR","2023-10-04 17:34:27","519744","15.24391126","0.0012706","97.4631","337.0976","343.6342","16.4483","0","999","4176","0.0014326","0.00035244","0","4024710","0 SPACEBEE-161","1 55096U 23001CR  23277.73226296  .00035244  00000-0  14326-2 0  9995","2 55096  97.4631 337.0976 0012706 343.6342  16.4483 15.24391126 41761","2023-001CR","55096","6870.751","94.464","501.346","483.886","0"
"GENERATED VIA SPACETRACK.ORG API","18 SPCS","55096","SPACEBEE-161","PAYLOAD","U","23001CR","2023-10-04 17:34:27","519744","15.24391126","0.0012706","97.4631","337.0976","343.6342","16.4483","0","999","4176","0.0014326","0.00035244","0","4024820","0 SPACEBEE-161","1 55096U 23001CR  23277.73226296  .00035244  00000-0  14326-2 0  9995","2 55096  97.4631 337.0976 0012706 343.6342  16.4483 15.24391126 41761","2023-001CR","55096","6870.751","94.464","501.346","483.886","0"
"GENERATED VIA SPACETRACK.ORG API","18 SPCS","55096","SPACEBEE-161","PAYLOAD","U","23001CR","2023-10-05 03:01:35","927328","15.24420471","0.0012697","97.463","337.4899","342.1048","17.974","0","999","4182","0.0014583","0.00035912","0","4025515","0 SPACEBEE-161","1 55096U 23001CR  23278.12611027  .00035912  00000-0  14583-2 0  9996","2 55096  97.4630 337.4899 0012697 342.1048  17.9740 15.24420471 41829","2023-001CR","55096","6870.663","94.462","501.252","483.805","0"
"GENERATED VIA SPACETRACK.ORG API","18 SPCS","55096","SPACEBEE-161","PAYLOAD","U","23001CR","2023-10-05 17:12:17","224992","15.24470088","0.0012662","97.4632","338.0782","340.0311","20.0429","0","999","4191","0.0016178","0.00039927","0","4025843","0 SPACEBEE-161","1 55096U 23001CR  23278.71686603  .00039927  00000-0  16178-2 0  9995","2 55096  97.4632 338.0782 0012662 340.0311  20.0429 15.24470088 41919","2023-001CR","55096","6870.514","94.459","501.079","483.680","0"
"GENERATED VIA SPACETRACK.ORG API","18 SPCS","55096","SPACEBEE-161","PAYLOAD","U","23001CR","2023-10-06 02:39:23","916672","15.24497789","0.001264","97.4631","338.4705","338.6829","21.388","0","999","4197","0.0014729","0.00036357","0","4026047","0 SPACEBEE-161","1 55096U 23001CR  23279.11069348  .00036357  00000-0  14729-2 0  9995","2 55096  97.4631 338.4705 0012640 338.6829  21.3880 15.24497789 41978","2023-001CR","55096","6870.431","94.457","500.980","483.612","0"
"GENERATED VIA SPACETRACK.ORG API","18 SPCS","55096","SPACEBEE-161","PAYLOAD","U","23001CR","2023-10-06 02:39:23","916672","15.24497789","0.001264","97.4631","338.4705","338.6829","21.388","0","999","4197","0.0014729","0.00036357","0","4026447","0 SPACEBEE-161","1 55096U 23001CR  23279.11069348  .00036357  00000-0  14729-2 0  9995","2 55096  97.4631 338.4705 0012640 338.6829  21.3880 15.24497789 41978","2023-001CR","55096","6870.431","94.457","500.980","483.612","0"
"GENERATED VIA SPACETRACK.ORG API","18 SPCS","55096","SPACEBEE-161","PAYLOAD","U","23001CR","2023-10-06 16:50:02","802048","15.24539913","0.0012547","97.4634","339.0587","336.6023","23.4642","0","999","4206","0.0014382","0.00035539","0","4026736","0 SPACEBEE-161","1 55096U 23001CR  23279.70142132  .00035539  00000-0  14382-2 0  9999","2 55096  97.4634 339.0587 0012547 336.6023  23.4642 15.24539913 42062","2023-001CR","55096","6870.304","94.455","500.790","483.549","0"
"GENERATED VIA SPACETRACK.ORG API","18 SPCS","55096","SPACEBEE-161","PAYLOAD","U","23001CR","2023-10-07 02:17:07","941984","15.24568547","0.0012607","97.4633","339.4504","334.9993","25.0632","0","999","4212","0.001508","0.00037308","0","4027321","0 SPACEBEE-161","1 55096U 23001CR  23280.09523081  .00037308  00000-0  15080-2 0  9991","2 55096  97.4633 339.4504 0012607 334.9993  25.0632 15.24568547 42127","2023-001CR","55096","6870.218","94.453","500.745","483.422","0"
"GENERATED VIA SPACETRACK.ORG API","18 SPCS","55096","SPACEBEE-161","PAYLOAD","U","23001CR","2023-10-07 16:27:44","473824","15.24608097","0.0012552","97.4633","340.0388","332.7687","27.2891","0","999","4221","0.0013238","0.0003276","0","4027507","0 SPACEBEE-161","1 55096U 23001CR  23280.68593141  .00032760  00000-0  13238-2 0  9990","2 55096  97.4633 340.0388 0012552 332.7687  27.2891 15.24608097 42216","2023-001CR","55096","6870.099","94.451","500.588","483.341","0"
"GENERATED VIA SPACETRACK.ORG API","18 SPCS","55096","SPACEBEE-161","PAYLOAD","U","23001CR","2023-10-07 16:27:44","473824","15.24608097","0.0012552","97.4633","340.0388","332.7687","27.2891","0","999","4221","0.0013238","0.0003276","0","4027648","0 SPACEBEE-161","1 55096U 23001CR  23280.68593141  .00032760  00000-0  13238-2 0  9990","2 55096  97.4633 340.0388 0012552 332.7687  27.2891 15.24608097 42216","2023-001CR","55096","6870.099","94.451","500.588","483.341","0"
"GENERATED VIA SPACETRACK.ORG API","18 SPCS","55096","SPACEBEE-161","PAYLOAD","U","23001CR","2023-10-08 09:47:20","630688","15.24659444","0.0012476","97.4634","340.7583","329.8044","30.2473","0","999","4232","0.0014728","0.00036529","0","4028261","0 SPACEBEE-161","1 55096U 23001CR  23281.40787767  .00036529  00000-0  14728-2 0  9992","2 55096  97.4634 340.7583 0012476 329.8044  30.2473 15.24659444 42324","2023-001CR","55096","6869.945","94.447","500.381","483.239","0"
"GENERATED VIA SPACETRACK.ORG API","18 SPCS","55096","SPACEBEE-161","PAYLOAD","U","23001CR","2023-10-08 17:39:52","712064","15.246843","0.0012469","97.4634","341.0853","328.4726","31.5763","0","999","4237","0.0014841","0.00036839","0","4028418","0 SPACEBEE-161","1 55096U 23001CR  23281.73602676  .00036839  00000-0  14841-2 0  9993","2 55096  97.4634 341.0853 0012469 328.4726  31.5763 15.24684300 42372","2023-001CR","55096","6869.871","94.446","500.302","483.170","0"
"GENERATED VIA SPACETRACK.ORG API","18 SPCS","55096","SPACEBEE-161","PAYLOAD","U","23001CR","2023-10-08 17:39:52","712064","15.246843","0.0012469","97.4634","341.0853","328.4726","31.5763","0","999","4237","0.0014841","0.00036839","0","4028564","0 SPACEBEE-161","1 55096U 23001CR  23281.73602676  .00036839  00000-0  14841-2 0  9993","2 55096  97.4634 341.0853 0012469 328.4726  31.5763 15.24684300 42372","2023-001CR","55096","6869.871","94.446","500.302","483.170","0"
"GENERATED VIA SPACETRACK.ORG API","18 SPCS","55096","SPACEBEE-161","PAYLOAD","U","23001CR","2023-10-09 03:06:54","595584","15.2471431","0.0012468","97.4634","341.4776","326.8979","33.1477","0","999","4243","0.0015091","0.00037497","0","4029150","0 SPACEBEE-161","1 55096U 23001CR  23282.12979856  .00037497  00000-0  15091-2 0  9993","2 55096  97.4634 341.4776 0012468 326.8979  33.1477 15.24714310 42433","2023-001CR","55096","6869.780","94.444","500.211","483.080","0"
